0 SL-19 R/B
1 37363U 11005B   13282.15872091  .00006033  00000-0  24137-3 0  8506
2 37363 099.4451 097.8246 0394283 331.4800 147.8933 14.75661280144082
0 SL-19 R/B
1 37363U 11005B   13283.17980330  .00005270  00000-0  21168-3 0  8519
2 37363 099.4451 099.0199 0394153 328.3232 172.2950 14.75673752144238
0 SL-19 R/B
1 37363U 11005B   13284.18743082  .00004963  00000-0  19980-3 0  8520
2 37363 099.4447 100.1993 0394040 325.2030 125.2661 14.75682955144384
0 SL-19 R/B
1 37363U 11005B   13285.74244833  .00005346  00000-0  21483-3 0  8531
2 37363 099.4442 102.0197 0393960 320.3893 106.2822 14.75694444144619
0 SL-19 R/B
1 37363U 11005B   13286.84164959  .00005343  00000-0  21478-3 0  8545
2 37363 099.4439 103.3064 0393866 316.9881 185.8154 14.75704116144771
0 SL-19 R/B
1 37363U 11005B   13288.18844639  .00006837  00000-0  27329-3 0  8555
2 37363 099.4435 104.8833 0393734 312.8173 140.7689 14.75721838144975
0 SL-19 R/B
1 37363U 11005B   13289.74262833  .00006992  00000-0  27939-3 0  8568
2 37363 099.4434 106.7029 0393659 308.0001 117.5788 14.75734957145200
0 SL-19 R/B
1 37363U 11005B   13291.50380286  .00006263  00000-0  25094-3 0  8570
2 37363 099.4435 108.7650 0393522 302.5483 114.1532 14.75754710145462
0 SL-19 R/B
1 37363U 11005B   13292.72390203  .00005506  00000-0  22129-3 0  8581
2 37363 099.4437 110.1936 0393470 298.7711 116.2368 14.75769449145645
0 SL-19 R/B
1 37363U 11005B   13294.16021115  .00007346  00000-0  29326-3 0  8595
2 37363 099.4439 111.8753 0393418 294.3198 187.0767 14.75781933145859
0 SL-19 R/B
1 37363U 11005B   13295.17738804  .00007708  00000-0  30750-3 0  8604
2 37363 099.4443 113.0664 0393322 291.1662 191.1877 14.75792466146003
